[{"OBJECT_NAME":"STARLINK-5361","OBJECT_ID":"2023-090AT","EPOCH":"2026-03-09T22:00:01.999584","MEAN_MOTION":15.08471495,"ECCENTRICITY":7.588e-5,"INCLINATION":43.0006,"RA_OF_ASC_NODE":260.3821,"ARG_OF_PERICENTER":315.6558,"MEAN_ANOMALY":190.5988,"EPHEMERIS_TYPE":0,"CLASSIFICATION_TYPE":"U","NORAD_CAT_ID":57142,"ELEMENT_SET_NO":999,"REV_AT_EPOCH":577,"BSTAR":0.0068561915,"MEAN_MOTION_DOT":0.00110162,"MEAN_MOTION_DDOT":0},{"OBJECT_NAME":"RAAF M1","OBJECT_ID":"2018-099X","EPOCH":"2026-03-09T15:51:10.230048","MEAN_MOTION":15.07065376,"ECCENTRICITY":0.00134971,"INCLINATION":97.4534,"RA_OF_ASC_NODE":114.8325,"ARG_OF_PERICENTER":21.6261,"MEAN_ANOMALY":338.5534,"EPHEMERIS_TYPE":0,"CLASSIFICATION_TYPE":"U","NORAD_CAT_ID":43779,"ELEMENT_SET_NO":999,"REV_AT_EPOCH":39714,"BSTAR":0.00026511092,"MEAN_MOTION_DOT":3.923e-5,"MEAN_MOTION_DDOT":0}]
